NORAD_CAT_ID,OBJECT_NAME,OBJECT_TYPE,EPOCH,MEAN_MOTION,ECCENTRICITY,INCLINATION,RA_OF_ASC_NODE,ARG_OF_PERICENTER,MEAN_ANOMALY,BSTAR,MEAN_MOTION_DOT,MEAN_MOTION_DDOT,TLE_LINE0,TLE_LINE1,TLE_LINE2,SEMIMAJOR_AXIS,PERIOD,APOGEE,PERIGEE,DECAYED
50158.0,STARLINK-3309,PAYLOAD,2022-11-10 07:48:24,15.08823334,0.0002525,53.2164,315.1165,24.4096,335.7015,0.0011436,0.00017951,0.0,0 STARLINK-3309,1 50158U 21125C   22314.32528144  .00017951  00000-0  11436-2 0  9991,2 50158  53.2164 315.1165 0002525  24.4096 335.7015 15.08823334 53046,6917.931,95.439,541.543,538.05,0.0
50158.0,STARLINK-3309,PAYLOAD,2022-11-10 17:20:43,15.08837306,0.0002516,53.2162,313.3325,25.3961,334.7154,0.0010415,0.00016325,0.0,0 STARLINK-3309,1 50158U 21125C   22314.72272374  .00016325  00000-0  10415-2 0  9996,2 50158  53.2162 313.3325 0002516  25.3961 334.7154 15.08837306 49955,6917.889,95.438,541.494,538.013,0.0
50158.0,STARLINK-3309,PAYLOAD,2022-11-11 09:14:34,15.08840505,0.0003332,53.2168,310.3624,21.7462,338.3671,0.00037022,5.609e-05,0.0,0 STARLINK-3309,1 50158U 21125C   22315.38512549  .00005609  00000-0  37022-3 0  9997,2 50158  53.2168 310.3624 0003332  21.7462 338.3671 15.08840505 50055,6917.879,95.438,542.049,537.439,0.0
50158.0,STARLINK-3309,PAYLOAD,2022-11-11 17:11:30,15.08842672,0.0002835,53.216,308.8731,25.5517,334.5615,0.0003716,5.631e-05,0.0,0 STARLINK-3309,1 50158U 21125C   22315.71632458  .00005631  00000-0  37160-3 0  9994,2 50158  53.2160 308.8731 0002835  25.5517 334.5615 15.08842672 53256,6917.871999999999,95.437,541.698,537.776,0.0
50158.0,STARLINK-3309,PAYLOAD,2022-11-12 05:54:35,15.08856839,0.0002837,53.2165,306.4935,28.5693,331.5454,0.0006351,9.839e-05,0.0,0 STARLINK-3309,1 50158U 21125C   22316.24624064  .00009839  00000-0  63510-3 0  9999,2 50158  53.2165 306.4935 0002837  28.5693 331.5454 15.08856839 53338,6917.829000000002,95.436,541.6569999999998,537.731,0.0
50158.0,STARLINK-3309,PAYLOAD,2022-11-13 02:34:35,15.08849983,0.0002818,53.2176,302.6279,25.231,334.8819,0.00020756,3.017e-05,0.0,0 STARLINK-3309,1 50158U 21125C   22317.10735645  .00003017  00000-0  20756-3 0  9990,2 50158  53.2176 302.6279 0002818  25.2310 334.8819 15.08849983 50316,6917.85,95.437,541.664,537.765,0.0
50158.0,STARLINK-3309,PAYLOAD,2022-11-13 08:56:08,15.0883808,0.0002639,53.2176,301.4387,23.8864,336.225,-7.7384e-05,-1.52e-05,0.0,0 STARLINK-3309,1 50158U 21125C   22317.37231950 -.00001520  00000-0 -77384-4 0  9998,2 50158  53.2176 301.4387 0002639  23.8864 336.2250 15.08838080 50357,6917.886,95.438,541.577,537.9259999999998,0.0
50158.0,STARLINK-3309,PAYLOAD,2022-11-14 08:46:56,15.08834872,0.0002681,53.2179,296.9778,26.1729,333.9398,-3.6245e-06,-3.46e-06,0.0,0 STARLINK-3309,1 50158U 21125C   22318.36592633 -.00000346  00000-0 -36245-5 0  9993,2 50158  53.2179 296.9778 0002681  26.1729 333.9398 15.08834872 53653,6917.896,95.438,541.616,537.906,0.0
50158.0,STARLINK-3309,PAYLOAD,2022-11-15 02:16:10,15.08838477,0.0002643,53.2181,293.7068,27.1765,332.9365,6.1962e-05,6.98e-06,0.0,0 STARLINK-3309,1 50158U 21125C   22319.09456163  .00000698  00000-0  61962-4 0  9992,2 50158  53.2181 293.7068 0002643  27.1765 332.9365 15.08838477 50613,6917.885,95.438,541.578,537.922,0.0
50158.0,STARLINK-3309,PAYLOAD,2022-11-15 08:37:42,15.08836505,0.000267,53.218,292.5169,26.1171,333.9956,3.9645e-05,3.42e-06,0.0,0 STARLINK-3309,1 50158U 21125C   22319.35952439  .00000342  00000-0  39645-4 0  9997,2 50158  53.2180 292.5169 0002670  26.1171 333.9956 15.08836505 53802,6917.891,95.438,541.6030000000002,537.909,0.0
50158.0,STARLINK-3309,PAYLOAD,2022-11-15 22:56:11,15.08830256,0.0002613,53.2176,289.8404,25.9412,334.1711,8.0511e-05,9.93e-06,0.0,0 STARLINK-3309,1 50158U 21125C   22319.95568968  .00000993  00000-0  80511-4 0  9993,2 50158  53.2176 289.8404 0002613  25.9412 334.1711 15.08830256 50749,6917.91,95.438,541.5830000000002,537.9680000000002,0.0
50158.0,STARLINK-3309,PAYLOAD,2022-11-16 08:28:30,15.08834532,0.0002727,53.2177,288.0567,24.7121,335.4002,0.00010619,1.402e-05,0.0,0 STARLINK-3309,1 50158U 21125C   22320.35312822  .00001402  00000-0  10619-3 0  9992,2 50158  53.2177 288.0567 0002727  24.7121 335.4002 15.08834532 53955,6917.897,95.438,541.649,537.876,0.0
50158.0,STARLINK-3309,PAYLOAD,2022-11-16 14:50:02,15.0884244,0.0002725,53.2179,286.8671,26.8973,333.216,0.00012236,1.66e-05,0.0,0 STARLINK-3309,1 50158U 21125C   22320.61808268  .00001660  00000-0  12236-3 0  9998,2 50158  53.2179 286.8671 0002725  26.8973 333.2160 15.08842440 50848,6917.873000000001,95.437,541.623,537.8530000000002,0.0
50158.0,STARLINK-3309,PAYLOAD,2022-11-17 06:43:54,15.08836585,0.0002592,53.2183,283.8934,32.7484,327.3669,9.3559e-05,1.201e-05,0.0,0 STARLINK-3309,1 50158U 21125C   22321.28048735  .00001201  00000-0  93559-4 0  9996,2 50158  53.2183 283.8934 0002592  32.7484 327.3669 15.08836585 50949,6917.891,95.438,541.549,537.9630000000002,0.0
50158.0,STARLINK-3309,PAYLOAD,2022-11-17 14:40:50,15.08831324,0.0002802,53.2182,282.407,27.4907,332.6233,-1.4603e-05,-5.21e-06,0.0,0 STARLINK-3309,1 50158U 21125C   22321.61169516 -.00000521  00000-0 -14603-4 0  9993,2 50158  53.2182 282.4070 0002802  27.4907 332.6233 15.08831324 50996,6917.906999999997,95.438,541.71,537.8340000000002,0.0
50158.0,STARLINK-3309,PAYLOAD,2022-11-18 06:34:41,15.08834949,0.0002758,53.2172,279.4327,25.6362,334.4766,1.8051e-05,-1e-08,0.0,0 STARLINK-3309,1 50158U 21125C   22322.27409370 -.00000001  00000-0  18051-4 0  9994,2 50158  53.2172 279.4327 0002758  25.6362 334.4766 15.08834949 54240,6917.896,95.438,541.669,537.8530000000002,0.0
50158.0,STARLINK-3309,PAYLOAD,2022-11-18 14:31:37,15.08834842,0.0002733,53.2184,277.9467,26.1762,333.9368,-4.5405e-05,-1.011e-05,0.0,0 STARLINK-3309,1 50158U 21125C   22322.60529692 -.00001011  00000-0 -45405-4 0  9997,2 50158  53.2184 277.9467 0002733  26.1762 333.9368 15.08834842 54293,6917.896,95.438,541.6519999999998,537.87,0.0
50158.0,STARLINK-3309,PAYLOAD,2022-11-19 06:25:28,15.08841613,0.0002856999999999,53.2177,274.9733,25.0055,335.1075,7.0307e-05,8.31e-06,0.0,0 STARLINK-3309,1 50158U 21125C   22323.26769046  .00000831  00000-0  70307-4 0  9995,2 50158  53.2177 274.9733 0002857  25.0055 335.1075 15.08841613 51243,6917.875,95.437,541.717,537.764,0.0
50158.0,STARLINK-3309,PAYLOAD,2022-11-20 03:05:28,15.08861046,0.0002985,53.2177,271.1072,28.0536,332.0617,-0.00023843,-4.084e-05,0.0,0 STARLINK-3309,1 50158U 21125C   22324.12880455 -.00004084  00000-0 -23843-3 0  9997,2 50158  53.2177 271.1072 0002985  28.0536 332.0617 15.08861046 51371,6917.816,95.436,541.746,537.616,0.0
50158.0,STARLINK-3309,PAYLOAD,2022-11-20 06:16:15,15.08834478,0.0002852,53.2177,270.5131,27.6124,332.5019,9.6526e-05,1.248e-05,0.0,0 STARLINK-3309,1 50158U 21125C   22324.26129497  .00001248  00000-0  96526-4 0  9990,2 50158  53.2177 270.5131 0002852  27.6124 332.5019 15.08834478 51393,6917.897,95.438,541.735,537.789,0.0
50158.0,STARLINK-3309,PAYLOAD,2022-11-21 06:07:02,15.08861931,0.0002833999999999,53.219,266.0534,27.2752,332.8389,-0.00030187,-5.093e-05,0.0,0 STARLINK-3309,1 50158U 21125C   22325.25489227 -.00005093  00000-0 -30187-3 0  9994,2 50158  53.2190 266.0534 0002834  27.2752 332.8389 15.08861931 51542,6917.813,95.436,541.639,537.7180000000002,0.0
50158.0,STARLINK-3309,PAYLOAD,2022-11-22 01:11:40,15.08840145,0.0003125,53.2189,262.4858,26.4429,333.6722,4.4924e-05,4.26e-06,0.0,0 STARLINK-3309,1 50158U 21125C   22326.04977398  .00000426  00000-0  44924-4 0  9991,2 50158  53.2189 262.4858 0003125  26.4429 333.6722 15.08840145 51662,6917.88,95.438,541.9069999999998,537.5830000000002,0.0
50158.0,STARLINK-3309,PAYLOAD,2022-11-22 12:19:22,15.08837465,0.0002696,53.2169,260.4039,28.972,331.1421,2.2084e-05,6.3e-07,0.0,0 STARLINK-3309,1 50158U 21125C   22326.51345576  .00000063  00000-0  22084-4 0  9990,2 50158  53.2169 260.4039 0002696  28.9720 331.1421 15.08837465 54889,6917.888000000001,95.438,541.618,537.888,0.0
50158.0,STARLINK-3309,PAYLOAD,2022-11-23 04:13:15,15.08821454,0.0003141,53.2191,257.4296,30.5014,329.6161,-5.5093e-05,-1.165e-05,0.0,0 STARLINK-3309,1 50158U 21125C   22327.17587200 -.00001165  00000-0 -55093-4 0  9997,2 50158  53.2191 257.4296 0003141  30.5014 329.6161 15.08821454 51832,6917.937,95.439,541.975,537.629,0.0
50158.0,STARLINK-3309,PAYLOAD,2022-11-23 05:48:38,15.08821336,0.000312,53.219,257.1316,31.0998,329.0178,-4.5719e-05,-1.016e-05,0.0,0 STARLINK-3309,1 50158U 21125C   22327.24211282 -.00001016  00000-0 -45719-4 0  9998,2 50158  53.2190 257.1316 0003120  31.0998 329.0178 15.08821336 54996,6917.937,95.439,541.961,537.644,0.0
50158.0,STARLINK-3309,PAYLOAD,2022-11-24 02:28:39,15.08826101,0.0002816,53.2178,253.2666,31.2743,328.8416,2.2878e-05,7.5e-07,0.0,0 STARLINK-3309,1 50158U 21125C   22328.10323349  .00000075  00000-0  22878-4 0  9995,2 50158  53.2178 253.2666 0002816  31.2743 328.8416 15.08826101 51970,6917.9230000000025,95.438,541.736,537.84,0.0
50158.0,STARLINK-3309,PAYLOAD,2022-11-24 04:04:02,15.08828196,0.0002987,53.218,252.9688,30.1003,330.016,4.1909e-05,3.78e-06,0.0,0 STARLINK-3309,1 50158U 21125C   22328.16947294  .00000378  00000-0  41909-4 0  9994,2 50158  53.2180 252.9688 0002987  30.1003 330.0160 15.08828196 55138,6917.916,95.438,541.8480000000002,537.715,0.0
50158.0,STARLINK-3309,PAYLOAD,2022-11-24 12:00:57,15.08833326,0.0002977,53.2182,251.4819,31.4405,328.6764,8.1266e-05,1.005e-05,0.0,0 STARLINK-3309,1 50158U 21125C   22328.50067074  .00001005  00000-0  81266-4 0  9999,2 50158  53.2182 251.4819 0002977  31.4405 328.6764 15.08833326 52039,6917.901,95.438,541.825,537.706,0.0
50158.0,STARLINK-3309,PAYLOAD,2022-11-25 03:54:48,15.08845853,0.0003053,53.2177,248.5081,31.8044,328.3132,0.00013189,1.811e-05,0.0,0 STARLINK-3309,1 50158U 21125C   22329.16306304  .00001811  00000-0  13189-3 0  9997,2 50158  53.2177 248.5081 0003053  31.8044 328.3132 15.08845853 52135,6917.861999999999,95.437,541.84,537.615,0.0
